[{"OBJECT_NAME":"STARLINK-3150","OBJECT_ID":"2021-104AW","EPOCH":"2026-03-09T17:39:40.835520","MEAN_MOTION":15.08842721,"ECCENTRICITY":0.00015062,"INCLINATION":53.2171,"RA_OF_ASC_NODE":218.9535,"ARG_OF_PERICENTER":90.6309,"MEAN_ANOMALY":269.4856,"EPHEMERIS_TYPE":0,"CLASSIFICATION_TYPE":"U","NORAD_CAT_ID":49452,"ELEMENT_SET_NO":999,"REV_AT_EPOCH":23878,"BSTAR":2.0767702e-5,"MEAN_MOTION_DOT":4.3e-7,"MEAN_MOTION_DDOT":0},{"OBJECT_NAME":"OBJECT D","OBJECT_ID":"2022-023D","EPOCH":"2026-03-09T23:24:15.634080","MEAN_MOTION":15.18234448,"ECCENTRICITY":0.01133038,"INCLINATION":63.4606,"RA_OF_ASC_NODE":248.8448,"ARG_OF_PERICENTER":353.4959,"MEAN_ANOMALY":6.4675,"EPHEMERIS_TYPE":0,"CLASSIFICATION_TYPE":"U","NORAD_CAT_ID":51949,"ELEMENT_SET_NO":999,"REV_AT_EPOCH":22265,"BSTAR":0.0002367106,"MEAN_MOTION_DOT":5.513e-5,"MEAN_MOTION_DDOT":0}]
